CCSDS_OMM_VERS = 2.0
CREATION_DATE  = 
ORIGINATOR     = 

OBJECT_NAME    = ATLAS CENTAUR 2
OBJECT_ID      = 1963-047A
CENTER_NAME    = EARTH
REF_FRAME      = TEME
TIME_SYSTEM    = UTC
MEAN_ELEMENT_THEORY = SGP/SGP4

EPOCH          = 2026-02-07T05:12:37.535904
MEAN_MOTION    = 14.11982932
ECCENTRICITY   = .0548112
INCLINATION    = 30.3559
RA_OF_ASC_NODE = 5.9259
ARG_OF_PERICENTER = 171.7742
MEAN_ANOMALY   = 189.2282

EPHEMERIS_TYPE = 0
CLASSIFICATION_TYPE = U
NORAD_CAT_ID   = 694
ELEMENT_SET_NO = 999
REV_AT_EPOCH   = 12731
BSTAR          = .19394E-3
MEAN_MOTION_DOT = .1693E-4
MEAN_MOTION_DDOT = 0

CCSDS_OMM_VERS = 2.0
CREATION_DATE  = 
ORIGINATOR     = 

OBJECT_NAME    = THOR AGENA D R/B
OBJECT_ID      = 1964-002A
CENTER_NAME    = EARTH
REF_FRAME      = TEME
TIME_SYSTEM    = UTC
MEAN_ELEMENT_THEORY = SGP/SGP4

EPOCH          = 2026-02-07T12:28:01.723296
MEAN_MOTION    = 14.34001350
ECCENTRICITY   = .0032686
INCLINATION    = 99.1229
RA_OF_ASC_NODE = 50.2140
ARG_OF_PERICENTER = 348.0978
MEAN_ANOMALY   = 11.9429

EPHEMERIS_TYPE = 0
CLASSIFICATION_TYPE = U
NORAD_CAT_ID   = 733
ELEMENT_SET_NO = 999
REV_AT_EPOCH   = 23397
BSTAR          = .13683E-3
MEAN_MOTION_DOT = .335E-5
MEAN_MOTION_DDOT = 0

CCSDS_OMM_VERS = 2.0
CREATION_DATE  = 
ORIGINATOR     = 

OBJECT_NAME    = SL-3 R/B
OBJECT_ID      = 1964-053B
CENTER_NAME    = EARTH
REF_FRAME      = TEME
TIME_SYSTEM    = UTC
MEAN_ELEMENT_THEORY = SGP/SGP4

EPOCH          = 2026-02-07T10:38:53.711808
MEAN_MOTION    = 14.61336085
ECCENTRICITY   = .0078248
INCLINATION    = 65.0762
RA_OF_ASC_NODE = 59.9091
ARG_OF_PERICENTER = 301.8273
MEAN_ANOMALY   = 57.5224

EPHEMERIS_TYPE = 0
CLASSIFICATION_TYPE = U
NORAD_CAT_ID   = 877
ELEMENT_SET_NO = 999
REV_AT_EPOCH   = 26237
BSTAR          = .1166E-3
MEAN_MOTION_DOT = .477E-5
MEAN_MOTION_DDOT = 0

CCSDS_OMM_VERS = 2.0
CREATION_DATE  = 
ORIGINATOR     = 

OBJECT_NAME    = SL-8 R/B
OBJECT_ID      = 1967-045B
CENTER_NAME    = EARTH
REF_FRAME      = TEME
TIME_SYSTEM    = UTC
MEAN_ELEMENT_THEORY = SGP/SGP4

EPOCH          = 2026-02-07T11:19:22.452096
MEAN_MOTION    = 14.45592902
ECCENTRICITY   = .0063053
INCLINATION    = 74.0101
RA_OF_ASC_NODE = 44.5205
ARG_OF_PERICENTER = 58.4343
MEAN_ANOMALY   = 302.2949

EPHEMERIS_TYPE = 0
CLASSIFICATION_TYPE = U
NORAD_CAT_ID   = 2802
ELEMENT_SET_NO = 999
REV_AT_EPOCH   = 8465
BSTAR          = .11607E-3
MEAN_MOTION_DOT = .392E-5
MEAN_MOTION_DDOT = 0

CCSDS_OMM_VERS = 2.0
CREATION_DATE  = 
ORIGINATOR     = 

OBJECT_NAME    = SL-8 R/B
OBJECT_ID      = 1968-040B
CENTER_NAME    = EARTH
REF_FRAME      = TEME
TIME_SYSTEM    = UTC
MEAN_ELEMENT_THEORY = SGP/SGP4

EPOCH          = 2026-02-07T08:38:37.114656
MEAN_MOTION    = 15.03027261
ECCENTRICITY   = .0025428
INCLINATION    = 74.0326
RA_OF_ASC_NODE = 15.6515
ARG_OF_PERICENTER = 208.4070
MEAN_ANOMALY   = 151.5734

EPHEMERIS_TYPE = 0
CLASSIFICATION_TYPE = U
NORAD_CAT_ID   = 3230
ELEMENT_SET_NO = 999
REV_AT_EPOCH   = 8545
BSTAR          = .36497E-3
MEAN_MOTION_DOT = .491E-4
MEAN_MOTION_DDOT = 0

CCSDS_OMM_VERS = 2.0
CREATION_DATE  = 
ORIGINATOR     = 

OBJECT_NAME    = OAO 2
OBJECT_ID      = 1968-110A
CENTER_NAME    = EARTH
REF_FRAME      = TEME
TIME_SYSTEM    = UTC
MEAN_ELEMENT_THEORY = SGP/SGP4

EPOCH          = 2026-02-07T03:39:25.630272
MEAN_MOTION    = 14.47289100
ECCENTRICITY   = .00059689
INCLINATION    = 34.9936
RA_OF_ASC_NODE = 75.7156
ARG_OF_PERICENTER = 309.3087
MEAN_ANOMALY   = 50.7074

EPHEMERIS_TYPE = 0
CLASSIFICATION_TYPE = U
NORAD_CAT_ID   = 3597
ELEMENT_SET_NO = 999
REV_AT_EPOCH   = 1467
BSTAR          = .11272369E-3
MEAN_MOTION_DOT = .399E-5
MEAN_MOTION_DDOT = 0

CCSDS_OMM_VERS = 2.0
CREATION_DATE  = 
ORIGINATOR     = 

OBJECT_NAME    = ISIS 1
OBJECT_ID      = 1969-009A
CENTER_NAME    = EARTH
REF_FRAME      = TEME
TIME_SYSTEM    = UTC
MEAN_ELEMENT_THEORY = SGP/SGP4

EPOCH          = 2026-02-07T08:38:00.482784
MEAN_MOTION    = 11.30401396
ECCENTRICITY   = .1707823
INCLINATION    = 88.4554
RA_OF_ASC_NODE = 158.6133
ARG_OF_PERICENTER = 150.3588
MEAN_ANOMALY   = 220.6358

EPHEMERIS_TYPE = 0
CLASSIFICATION_TYPE = U
NORAD_CAT_ID   = 3669
ELEMENT_SET_NO = 999
REV_AT_EPOCH   = 34510
BSTAR          = .29874E-3
MEAN_MOTION_DOT = .436E-5
MEAN_MOTION_DDOT = 0

CCSDS_OMM_VERS = 2.0
CREATION_DATE  = 
ORIGINATOR     = 

OBJECT_NAME    = SERT 2
OBJECT_ID      = 1970-009A
CENTER_NAME    = EARTH
REF_FRAME      = TEME
TIME_SYSTEM    = UTC
MEAN_ELEMENT_THEORY = SGP/SGP4

EPOCH          = 2026-02-07T10:38:58.505280
MEAN_MOTION    = 13.58726832
ECCENTRICITY   = .0004059
INCLINATION    = 99.2722
RA_OF_ASC_NODE = 343.1990
ARG_OF_PERICENTER = 238.5116
MEAN_ANOMALY   = 231.0019

EPHEMERIS_TYPE = 0
CLASSIFICATION_TYPE = U
NORAD_CAT_ID   = 4327
ELEMENT_SET_NO = 999
REV_AT_EPOCH   = 77578
BSTAR          = .1375E-3
MEAN_MOTION_DOT = .59E-6
MEAN_MOTION_DDOT = 0

CCSDS_OMM_VERS = 2.0
CREATION_DATE  = 
ORIGINATOR     = 

OBJECT_NAME    = SL-3 R/B
OBJECT_ID      = 1971-028B
CENTER_NAME    = EARTH
REF_FRAME      = TEME
TIME_SYSTEM    = UTC
MEAN_ELEMENT_THEORY = SGP/SGP4

EPOCH          = 2026-02-07T12:08:15.160128
MEAN_MOTION    = 15.58747775
ECCENTRICITY   = .0017548
INCLINATION    = 81.2349
RA_OF_ASC_NODE = 89.2456
ARG_OF_PERICENTER = 40.8429
MEAN_ANOMALY   = 319.4134

EPHEMERIS_TYPE = 0
CLASSIFICATION_TYPE = U
NORAD_CAT_ID   = 5118
ELEMENT_SET_NO = 999
REV_AT_EPOCH   = 98396
BSTAR          = .51595E-3
MEAN_MOTION_DOT = .40188E-3
MEAN_MOTION_DDOT = 0

CCSDS_OMM_VERS = 2.0
CREATION_DATE  = 
ORIGINATOR     = 

OBJECT_NAME    = ASTEX 1
OBJECT_ID      = 1971-089A
CENTER_NAME    = EARTH
REF_FRAME      = TEME
TIME_SYSTEM    = UTC
MEAN_ELEMENT_THEORY = SGP/SGP4

EPOCH          = 2026-02-07T06:23:52.536192
MEAN_MOTION    = 14.50733617
ECCENTRICITY   = .00155644
INCLINATION    = 92.7152
RA_OF_ASC_NODE = 141.9167
ARG_OF_PERICENTER = 179.2468
MEAN_ANOMALY   = 180.8764

EPHEMERIS_TYPE = 0
CLASSIFICATION_TYPE = U
NORAD_CAT_ID   = 5560
ELEMENT_SET_NO = 999
REV_AT_EPOCH   = 85789
BSTAR          = .21643497E-3
MEAN_MOTION_DOT = .851E-5
MEAN_MOTION_DDOT = 0

CCSDS_OMM_VERS = 2.0
CREATION_DATE  = 
ORIGINATOR     = 

OBJECT_NAME    = SL-8 R/B
OBJECT_ID      = 1971-119B
CENTER_NAME    = EARTH
REF_FRAME      = TEME
TIME_SYSTEM    = UTC
MEAN_ELEMENT_THEORY = SGP/SGP4

EPOCH          = 2026-02-07T12:28:26.112288
MEAN_MOTION    = 14.36937024
ECCENTRICITY   = .0553881
INCLINATION    = 73.8853
RA_OF_ASC_NODE = 232.0751
ARG_OF_PERICENTER = 204.8990
MEAN_ANOMALY   = 152.4499

EPHEMERIS_TYPE = 0
CLASSIFICATION_TYPE = U
NORAD_CAT_ID   = 5730
ELEMENT_SET_NO = 999
REV_AT_EPOCH   = 65115
BSTAR          = .73725E-3
MEAN_MOTION_DOT = .14212E-3
MEAN_MOTION_DDOT = 0

CCSDS_OMM_VERS = 2.0
CREATION_DATE  = 
ORIGINATOR     = 

OBJECT_NAME    = OAO 3 (COPERNICUS)
OBJECT_ID      = 1972-065A
CENTER_NAME    = EARTH
REF_FRAME      = TEME
TIME_SYSTEM    = UTC
MEAN_ELEMENT_THEORY = SGP/SGP4

EPOCH          = 2026-02-07T12:30:41.832864
MEAN_MOTION    = 14.59971071
ECCENTRICITY   = .0007261
INCLINATION    = 35.0055
RA_OF_ASC_NODE = 109.1910
ARG_OF_PERICENTER = 274.3063
MEAN_ANOMALY   = 212.6201

EPHEMERIS_TYPE = 0
CLASSIFICATION_TYPE = U
NORAD_CAT_ID   = 6153
ELEMENT_SET_NO = 999
REV_AT_EPOCH   = 84178
BSTAR          = .11875E-3
MEAN_MOTION_DOT = .557E-5
MEAN_MOTION_DDOT = 0

