ATLAS CENTAUR 2         
1 00694U 63047A   26038.21710111  .00001693  00000+0  19394-3 0  9999
2 00694  30.3559   5.9259 0548112 171.7742 189.2282 14.11982932127312
THOR AGENA D R/B        
1 00733U 64002A   26038.51946439  .00000335  00000+0  13683-3 0  9999
2 00733  99.1229  50.2140 0032686 348.0978  11.9429 14.34001350233974
SL-3 R/B                
1 00877U 64053B   26038.44367722  .00000477  00000+0  11660-3 0  9998
2 00877  65.0762  59.9091 0078248 301.8273  57.5224 14.61336085262378
SL-8 R/B                
1 02802U 67045B   26038.47178764  .00000392  00000+0  11607-3 0  9998
2 02802  74.0101  44.5205 0063053  58.4343 302.2949 14.45592902 84654
SL-8 R/B                
1 03230U 68040B   26038.36015179  .00004910  00000+0  36497-3 0  9992
2 03230  74.0326  15.6515 0025428 208.4070 151.5734 15.03027261 85452
OAO 2                   
1 03597U 68110A   26038.15237998  .00000399  00000+0  11272-3 0  9999
2 03597  34.9936  75.7156 0005968 309.3087  50.7074 14.47289100 14676
ISIS 1                  
1 03669U 69009A   26038.35972781  .00000436  00000+0  29874-3 0  9994
2 03669  88.4554 158.6133 1707823 150.3588 220.6358 11.30401396345102
SERT 2                  
1 04327U 70009A   26038.44373270  .00000059  00000+0  13750-3 0  9993
2 04327  99.2722 343.1990 0004059 238.5116 231.0019 13.58726832775787
SL-3 R/B                
1 05118U 71028B   26038.50573102  .00040188  00000+0  51595-3 0  9993
2 05118  81.2349  89.2456 0017548  40.8429 319.4134 15.58747775983966
ASTEX 1                 
1 05560U 71089A   26038.26658028  .00000851  00000+0  21643-3 0  9999
2 05560  92.7152 141.9167 0015564 179.2468 180.8764 14.50733617857899
SL-8 R/B                
1 05730U 71119B   26038.51974667  .00014212  00000+0  73725-3 0  9994
2 05730  73.8853 232.0751 0553881 204.8990 152.4499 14.36937024651154
OAO 3 (COPERNICUS)      
1 06153U 72065A   26038.52131751  .00000557  00000+0  11875-3 0  9990
2 06153  35.0055 109.1910 0007261 274.3063 212.6201 14.59971071841783
